#aV2010  1 25  0  0   .00000000      96 DD+AD WGS84 FIT  NGA
## 1568  86400.00000000   900.00000000 55221  .0000000000000
+   32     1  2  3  4  5  6  7  8  9 10 11 12 13 14 15 16 17
+         18 19 20 21 22 23 24 25 26 27 28 29 30 31 32  0  0
+          0  0  0  0  0  0  0  0  0  0  0  0  0  0  0  0  0
+          0  0  0  0  0  0  0  0  0  0  0  0  0  0  0  0  0
+          0  0  0  0  0  0  0  0  0  0  0  0  0  0  0  0  0
++         0  0  0  0  0  0  0  0  0  0  0  0  0  0  0  0  0
++         0  0  0  0  0  0  0  0  0  0  0  0  0  0  0  0  0
++         0  0  0  0  0  0  0  0  0  0  0  0  0  0  0  0  0
++         0  0  0  0  0  0  0  0  0  0  0  0  0  0  0  0  0
++         0  0  0  0  0  0  0  0  0  0  0  0  0  0  0  0  0
%c cc cc ccc ccc cccc cccc cccc cccc ccccc ccccc ccccc ccccc
%c cc cc ccc ccc cccc cccc cccc cccc ccccc ccccc ccccc ccccc
%f  0.0000000  0.000000000  0.00000000000  0.000000000000000
%f  0.0000000  0.000000000  0.00000000000  0.000000000000000
%i    0    0    0    0      0      0      0      0         0
%i    0    0    0    0      0      0      0      0         0
/*      NGA, ST. LOUIS,MO.                                  
/*   EPHEMERIS COMPUTED FROM  3 DAYS OF DATA                
/* CCCCCCCCCCCCCCCCCCCCCCCCCCCCCCCCCCCCCCCCCCCCCCCCCCCCCCCCC
/* CCCCCCCCCCCCCCCCCCCCCCCCCCCCCCCCCCCCCCCCCCCCCCCCCCCCCCCCC
*  2010  1 25 14 15   .00000000                                                 
P  1 -16863.110467  10293.642039  17597.665498    -82.702132                    
V  1   6263.335470 -21764.315940  18743.554575      -.034139                    
P  2 -12587.616717 -22626.858590   6822.309520    219.446962                    
V  2   7839.275599   4713.905606  29399.716141       .042163                    
P  3  11020.623499  13032.942675 -20767.227015    506.840456                    
V  3 -24419.911842   7870.865202  -7810.848751       .052323                    
P  4   -351.727384 -20117.600239  16983.864850   -475.482735                    
V  4  15801.341142  15633.417954  19024.534245      -.192975                    
P  5  -5083.115915 -19935.598730 -16769.519316    -13.389281                    
V  5   9198.573772 -19295.188179  20255.636297       .033586                    
P  6   6517.217020  14532.964734 -21084.753454    257.225846                    
V  6 -26586.394639   6143.604099  -3835.827919      -.035191                    
P  7  16301.944574  -2614.489405 -20846.464043      3.809001                    
V  7  16134.386033  20893.377241   9847.879121      -.005444                    
P  8   7657.807767 -13485.870490 -21490.349315      2.550864                    
V  8  16387.023005  21801.191575  -8354.643655       .004472                    
P  9 -20181.418325 -14968.344407   8007.427048    102.120383                    
V  9  -5599.742562  -9779.303297 -29898.931276       .022953                    
P 10   -302.704957 -23236.975970 -12704.900752    -33.751950                    
V 10   8443.923423 -13845.710797  25820.791474      -.008630                    
P 11  23457.967209   8472.291854   9371.180574    -41.661556                    
V 11   7120.748553  10896.910522 -26578.622425      -.021330                    
P 12 -14502.076012  -4159.770154  21911.948170   -158.529151                    
V 12   9804.868021 -25867.282478   1716.984306       .048885                    
P 13  25528.818858  -5659.243247  -4824.198128    306.652904                    
V 13   6077.109393   1103.696101  31693.118876      -.000625                    
P 14 -13523.431400  13791.962741  18313.755542      4.179618                    
V 14 -22928.218203   1582.195164 -18375.847891       .044164                    
P 15 -18629.140079  -8732.117538 -16830.940873   -311.266311                    
V 15  20725.617502  -5616.929400 -19889.999557       .024385                    
P 16   -860.660575  23600.621438 -11842.220596    -34.353257                    
V 16  -7857.168476  13202.561317  27024.954777      -.040749                    
P 17  11817.602145 -14831.521020  18593.543566    124.198066                    
V 17  23501.759042  -1767.230267 -16624.719278       .032901                    
P 18 -16766.706819  15094.719263 -13462.184592     44.351723                    
V 18   3842.405913 -17561.167975 -24394.261746       .026703                    
P 19  19614.845312   9239.498430 -15496.578479    -11.670350                    
V 19 -19400.215934   3561.809589 -22096.044694      -.022544                    
P 20  16318.974946   -600.274475  20803.769219     62.622498                    
V 20  -7958.758677  25623.188759   6994.188972      -.007677                    
P 21 -14165.158294   7233.993767 -21016.806469    -36.292113                    
V 21 -16956.774801 -21585.566984   3318.497199      -.024492                    
P 22 -11924.228864  23499.306604  -2809.386057    180.748425                    
V 22  -1915.758638  -4877.330900 -30989.875234      -.008413                    
P 23  25898.349243    477.524614   6532.637288    381.537618                    
V 23  -7813.121860   3450.127435  30300.339338      -.008962                    
P 24 -19269.174130  -5220.654858 -17322.906853    256.772188                    
V 24 -11568.111798 -19152.952963  18795.230907       .031951                    
P 25  19513.551860   2941.350013 -17335.271326     86.536701                    
V 25  14759.609374  17387.792773  19376.983004       .075149                    
P 26 -22212.990001   9484.900324  11014.935148    -12.562824                    
V 26 -14689.223644     78.762008 -27851.263640      -.032332                    
P 27 -20633.744311 -15598.377165   6942.630287    120.281284                    
V 27  -3834.046618  -7149.372483 -30438.201103       .033715                    
P 28  12982.432996 -22333.411468  -4961.274578    -23.130521                    
V 28    -70.966542   7484.868944 -31300.227569       .006081                    
P 29 -26233.445936   3973.338338   -632.770203     92.764605                    
V 29  -1285.964223  -2715.269351  31756.701093       .030995                    
P 30 -16585.796333   7946.629610  18757.227160    213.718426                    
V 30   6194.530271 -23932.783081  15358.731557       .032851                    
P 31   2829.776401  20884.617338  16280.281396    -54.039841                    
V 31 -14110.675830 -14685.952030  21738.020382       .014724                    
P 32  11964.131744  10249.039265  21775.688455    109.424162                    
V 32 -11783.569498  24035.540812  -4605.374811      -.081201                    
EOF
